H1 CPF 01  gfz 2021 04 17 00  6071 tandemx   
H2 1003001  6202 36605    2021 04 17 00 59 42 2021 04 22 00 00 42   120 1 1  0 0 0
H9
10 0 59323  29502.000000  0    5354688.146  -3759672.786  -2166539.289
10 0 59323  29622.000000  0    4972947.078  -3709685.027  -3003413.365
10 0 59323  29742.000000  0    4506053.388  -3587626.413  -3787579.346
10 0 59323  29862.000000  0    3963480.358  -3394282.459  -4505344.928
10 0 59323  29982.000000  0    3355976.154  -3131852.811  -5144212.394
10 0 59323  30102.000000  0    2695343.761  -2803925.305  -5693089.282
10 0 59323  30222.000000  0    1994207.553  -2415424.498  -6142470.549
10 0 59323  30342.000000  0    1265770.855  -1972535.503  -6484593.454
10 0 59323  30462.000000  0     523566.919  -1482602.050  -6713561.796
10 0 59323  30582.000000  0    -218789.943   -954003.366  -6825436.589
10 0 59323  30702.000000  0    -947848.906   -396012.290  -6818295.529
10 0 59323  30822.000000  0   -1650560.343    181363.832  -6692262.220
10 0 59323  30942.000000  0   -2314504.120    767558.195  -6449503.531
10 0 59323  31062.000000  0   -2928103.926   1351632.669  -6094196.285
10 0 59323  31182.000000  0   -3480825.931   1922476.770  -5632463.664
10 0 59323  31302.000000  0   -3963360.650   2469015.173  -5072281.518
10 0 59323  31422.000000  0   -4367784.384   2980421.126  -4423351.906
10 0 59323  31542.000000  0   -4687695.123   3446330.646  -3696944.866
10 0 59323  31662.000000  0   -4918320.861   3857053.863  -2905712.503
10 0 59323  31782.000000  0   -5056598.488   4203779.319  -2063474.723
10 0 59323  31902.000000  0   -5101219.807   4478765.238  -1184980.616
10 0 59323  32022.000000  0   -5052644.051   4675514.003   -285648.868
10 0 59323  32142.000000  0   -4913074.398   4788924.679    618708.156
10 0 59323  32262.000000  0   -4686398.747   4815418.506   1512170.873
10 0 59323  32382.000000  0   -4378095.868   4753033.075   2379002.559
10 0 59323  32502.000000  0   -3995108.308   4601484.062   3203935.466
10 0 59323  32622.000000  0   -3545686.906   4362192.708   3972446.593
10 0 59323  32742.000000  0   -3039211.688   4038278.525   4671017.838
10 0 59323  32862.000000  0   -2485993.051   3634518.003   5287376.286
10 0 59323  32982.000000  0   -1897057.487   3157269.650   5810709.098
10 0 59323  33102.000000  0   -1283923.713   2614368.144   6231849.463
10 0 59323  33222.000000  0    -658374.206   2014989.691   6543430.805
10 0 59323  33342.000000  0     -32228.847   1369493.231   6740008.414
10 0 59323  33462.000000  0     582878.221    689239.089   6818149.862
10 0 59323  33582.000000  0    1175714.223    -13611.474   6776490.355
10 0 59323  33702.000000  0    1735651.698   -726312.729   6615755.601
10 0 59323  33822.000000  0    2252858.559  -1435765.259   6338750.425
10 0 59323  33942.000000  0    2718471.209  -2128755.830   5950313.595
10 0 59323  34062.000000  0    3124748.985  -2792204.336   5457238.779
10 0 59323  34182.000000  0    3465205.703  -3413412.408   4868161.276
10 0 59323  34302.000000  0    3734716.801  -3980309.930   4193412.692
10 0 59323  34422.000000  0    3929600.347  -4481694.547   3444843.816
10 0 59323  34542.000000  0    4047668.563  -4907458.854   2635618.042
10 0 59323  34662.000000  0    4088249.569  -5248799.965   1779978.792
10 0 59323  34782.000000  0    4052178.075  -5498405.785    892994.496
10 0 59323  34902.000000  0    3941754.517  -5650612.738     -9713.512
10 0 59323  35022.000000  0    3760675.170  -5701531.875   -912253.145
10 0 59323  35142.000000  0    3513933.251  -5649140.487  -1798751.160
10 0 59323  35262.000000  0    3207693.504  -5493334.316  -2653640.207
10 0 59323  35382.000000  0    2849145.424  -5235941.972  -3461938.481
10 0 59323  35502.000000  0    2446336.910  -4880699.734  -4209515.935
10 0 59323  35622.000000  0    2007993.729  -4433188.775  -4883340.294
10 0 59323  35742.000000  0    1543330.696  -3900737.131  -5471698.860
10 0 59323  35862.000000  0    1061859.435  -3292290.201  -5964393.368
10 0 59323  35982.000000  0     573195.215  -2618253.586  -6352906.290
10 0 59323  36102.000000  0      86867.090  -1890310.619  -6630537.042
10 0 59323  36222.000000  0    -387864.190  -1121217.934  -6792506.655
10 0 59323  36342.000000  0    -842177.438   -324583.281  -6836031.275
10 0 59323  36462.000000  0   -1267850.415    485370.990  -6760364.113
10 0 59323  36582.000000  0   -1657405.213   1294055.140  -6566806.186
10 0 59323  36702.000000  0   -2004236.392   2086768.290  -6258686.240
10 0 59323  36822.000000  0   -2302721.333   2848959.013  -5841310.551
10 0 59323  36942.000000  0   -2548311.817   3566489.275  -5321881.616
10 0 59323  37062.000000  0   -2737604.442   4225896.090  -4709385.544
10 0 59323  37182.000000  0   -2868389.624   4814647.568  -4014447.682
10 0 59323  37302.000000  0   -2939676.316   5321386.428  -3249156.732
10 0 59323  37422.000000  0   -2951691.868   5736155.373  -2426862.278
10 0 59323  37542.000000  0   -2905858.285   6050602.882  -1561947.426
10 0 59323  37662.000000  0   -2804742.720   6258161.089   -669576.477
10 0 59323  37782.000000  0   -2651984.364   6354189.281    234573.264
10 0 59323  37902.000000  0   -2452200.612   6336084.644   1134592.757
10 0 59323  38022.000000  0   -2210870.161   6203350.134   2014633.112
10 0 59323  38142.000000  0   -1934197.707   5957616.812   2859194.419
10 0 59323  38262.000000  0   -1628965.637   5602623.926   3653405.936
10 0 59323  38382.000000  0   -1302376.381   5144157.648   4383293.124
10 0 59323  38502.000000  0    -961888.894   4589949.366   5036027.232
10 0 59323  38622.000000  0    -615051.384   3949535.466   5600150.823
10 0 59323  38742.000000  0    -269337.717   3234084.917   6065775.476
10 0 59323  38862.000000  0      68010.388   2456195.970   6424750.805
10 0 59323  38982.000000  0     390132.316   1629668.677   6670800.584
10 0 59323  39102.000000  0     690686.105    769256.283   6799627.110
10 0 59323  39222.000000  0     963971.576   -109599.583   6808980.540
10 0 59323  39342.000000  0    1205037.353   -991044.756   6698696.349
10 0 59323  39462.000000  0    1409770.333  -1859098.362   6470698.742
10 0 59323  39582.000000  0    1574966.165  -2697942.155   6128969.637
10 0 59323  39702.000000  0    1698379.597  -3492210.274   5679483.562
10 0 59323  39822.000000  0    1778753.478  -4227273.661   5130107.930
10 0 59323  39942.000000  0    1815826.774  -4889512.738   4490470.590
10 0 59323  40062.000000  0    1810322.039  -5466576.594   3771797.772
10 0 59323  40182.000000  0    1763911.269  -5947623.455   2986719.568
10 0 59323  40302.000000  0    1679159.574  -6323532.630   2149047.147
10 0 59323  40422.000000  0    1559450.296  -6587085.539   1273528.181
10 0 59323  40542.000000  0    1408892.040  -6733112.303    375582.647
10 0 59323  40662.000000  0    1232209.346  -6758598.617   -528975.971
10 0 59323  40782.000000  0    1034619.041  -6662749.946  -1424230.130
10 0 59323  40902.000000  0     821696.758  -6447006.551  -2294448.151
10 0 59323  41022.000000  0     599237.579  -6115014.253  -3124366.671
10 0 59323  41142.000000  0     373115.239  -5672553.169  -3899462.347
10 0 59323  41262.000000  0     149141.476  -5127424.797  -4606207.141
10 0 59323  41382.000000  0     -67070.534  -4489301.136  -5232300.706
10 0 59323  41502.000000  0    -270234.907  -3769541.770  -5766877.475
10 0 59323  41622.000000  0    -455511.432  -2980982.074  -6200685.807
10 0 59323  41742.000000  0    -618611.128  -2137698.160  -6526236.866
10 0 59323  41862.000000  0    -755887.507  -1254753.263  -6737922.297
10 0 59323  41982.000000  0    -864412.034   -347930.665  -6832101.187
10 0 59323  42102.000000  0    -942032.412    566544.365  -6807155.667
10 0 59323  42222.000000  0    -987413.234   1472287.539  -6663514.580
10 0 59323  42342.000000  0   -1000058.603   2353041.483  -6403646.864
10 0 59323  42462.000000  0    -980316.186   3192960.334  -6032024.499
10 0 59323  42582.000000  0    -929362.814   3976891.581  -5555054.838
10 0 59323  42702.000000  0    -849171.484   4690648.760  -4980980.543
10 0 59323  42822.000000  0    -742460.560   5321271.803  -4319749.040
10 0 59323  42942.000000  0    -612625.931   5857269.897  -3582850.223
10 0 59323  43062.000000  0    -463656.738   6288840.461  -2783124.814
10 0 59323  43182.000000  0    -300036.281   6608060.312  -1934546.442
10 0 59323  43302.000000  0    -126630.505   6809043.944  -1051979.121
10 0 59323  43422.000000  0      51433.835   6888063.842   -150914.959
10 0 59323  43542.000000  0     228898.652   6843629.345    752803.060
10 0 59323  43662.000000  0     400508.050   6676521.152   1643268.025
10 0 59323  43782.000000  0     561141.566   6389778.647   2504798.719
10 0 59323  43902.000000  0     705943.402   5988641.304   3322223.283
10 0 59323  44022.000000  0     830445.592   5480447.878   4081152.776
10 0 59323  44142.000000  0     930683.786   4874496.350   4768239.760
10 0 59323  44262.000000  0    1003297.805   4181860.443   5371418.131
10 0 59323  44382.000000  0    1045618.875   3415176.064   5880109.554
10 0 59323  44502.000000  0    1055741.177   2588403.489   6285404.935
10 0 59323  44622.000000  0    1032574.237   1716566.472   6580215.267
10 0 59323  44742.000000  0     975876.925    815474.592   6759389.858
10 0 59323  44862.000000  0     886272.250    -98565.386   6819799.884
10 0 59323  44982.000000  0     765242.552  -1009043.227   6760390.145
10 0 59323  45102.000000  0     615104.874  -1899543.524   6582197.463
10 0 59323  45222.000000  0     438966.813  -2754041.515   6288334.007
10 0 59323  45342.000000  0     240663.649  -3557193.400   5883935.910
10 0 59323  45462.000000  0      24678.382  -4294612.885   5376075.951
10 0 59323  45582.000000  0    -203953.653  -4953131.064   4773646.594
10 0 59323  45702.000000  0    -439754.675  -5521039.065   4087212.570
10 0 59323  45822.000000  0    -676928.188  -5988307.194   3328829.489
10 0 59323  45942.000000  0    -909493.000  -6346771.744   2511833.025
99
